[{"OBJECT_NAME":"ONEWEB-0243","OBJECT_ID":"2021-045H","EPOCH":"2026-03-04T02:32:22.377984","MEAN_MOTION":13.15550254,"ECCENTRICITY":0.0001257,"INCLINATION":87.8944,"RA_OF_ASC_NODE":280.2038,"ARG_OF_PERICENTER":107.4392,"MEAN_ANOMALY":252.6876,"EPHEMERIS_TYPE":0,"CLASSIFICATION_TYPE":"U","NORAD_CAT_ID":48774,"ELEMENT_SET_NO":999,"REV_AT_EPOCH":23054,"BSTAR":0.0001154,"MEAN_MOTION_DOT":5.6e-7,"MEAN_MOTION_DDOT":0},{"OBJECT_NAME":"ONEWEB-0222","OBJECT_ID":"2021-045J","EPOCH":"2026-03-04T02:08:24.617184","MEAN_MOTION":13.15548028,"ECCENTRICITY":0.0001676,"INCLINATION":87.8954,"RA_OF_ASC_NODE":280.1668,"ARG_OF_PERICENTER":95.6432,"MEAN_ANOMALY":264.489,"EPHEMERIS_TYPE":0,"CLASSIFICATION_TYPE":"U","NORAD_CAT_ID":48775,"ELEMENT_SET_NO":999,"REV_AT_EPOCH":23058,"BSTAR":-0.00032688,"MEAN_MOTION_DOT":-1.1e-6,"MEAN_MOTION_DDOT":0},{"OBJECT_NAME":"ONEWEB-0244","OBJECT_ID":"2021-045K","EPOCH":"2026-03-04T02:46:02.717472","MEAN_MOTION":13.15547488,"ECCENTRICITY":0.0001535,"INCLINATION":87.8954,"RA_OF_ASC_NODE":280.1516,"ARG_OF_PERICENTER":95.1042,"MEAN_ANOMALY":265.0263,"EPHEMERIS_TYPE":0,"CLASSIFICATION_TYPE":"U","NORAD_CAT_ID":48776,"ELEMENT_SET_NO":999,"REV_AT_EPOCH":23115,"BSTAR":0.00033327,"MEAN_MOTION_DOT":1.38e-6,"MEAN_MOTION_DDOT":0},{"OBJECT_NAME":"ONEWEB-0247","OBJECT_ID":"2021-045L","EPOCH":"2026-03-04T00:51:58.116384","MEAN_MOTION":13.15547596,"ECCENTRICITY":0.0001538,"INCLINATION":87.8945,"RA_OF_ASC_NODE":280.2125,"ARG_OF_PERICENTER":121.3687,"MEAN_ANOMALY":238.7594,"EPHEMERIS_TYPE":0,"CLASSIFICATION_TYPE":"U","NORAD_CAT_ID":48777,"ELEMENT_SET_NO":999,"REV_AT_EPOCH":23058,"BSTAR":0.0004037,"MEAN_MOTION_DOT":1.65e-6,"MEAN_MOTION_DDOT":0},{"OBJECT_NAME":"ONEWEB-0245","OBJECT_ID":"2021-045M","EPOCH":"2026-03-04T02:34:38.079552","MEAN_MOTION":13.15547643,"ECCENTRICITY":0.0001777,"INCLINATION":87.8953,"RA_OF_ASC_NODE":280.1678,"ARG_OF_PERICENTER":91.1074,"MEAN_ANOMALY":269.026,"EPHEMERIS_TYPE":0,"CLASSIFICATION_TYPE":"U","NORAD_CAT_ID":48778,"ELEMENT_SET_NO":999,"REV_AT_EPOCH":23056,"BSTAR":0.00025622,"MEAN_MOTION_DOT":1.09e-6,"MEAN_MOTION_DDOT":0},{"OBJECT_NAME":"ONEWEB-0229","OBJECT_ID":"2021-045N","EPOCH":"2026-03-04T02:27:47.401344","MEAN_MOTION":13.15547296,"ECCENTRICITY":0.0001474,"INCLINATION":87.8951,"RA_OF_ASC_NODE":280.1673,"ARG_OF_PERICENTER":91.8188,"MEAN_ANOMALY":268.3111,"EPHEMERIS_TYPE":0,"CLASSIFICATION_TYPE":"U","NORAD_CAT_ID":48779,"ELEMENT_SET_NO":999,"REV_AT_EPOCH":23059,"BSTAR":8.3895e-5,"MEAN_MOTION_DOT":4.4e-7,"MEAN_MOTION_DDOT":0},{"OBJECT_NAME":"ONEWEB-0228","OBJECT_ID":"2021-045P","EPOCH":"2026-03-04T03:15:54.561024","MEAN_MOTION":13.15547583,"ECCENTRICITY":0.0001555,"INCLINATION":87.8952,"RA_OF_ASC_NODE":280.1478,"ARG_OF_PERICENTER":92.1134,"MEAN_ANOMALY":268.0174,"EPHEMERIS_TYPE":0,"CLASSIFICATION_TYPE":"U","NORAD_CAT_ID":48780,"ELEMENT_SET_NO":999,"REV_AT_EPOCH":23051,"BSTAR":0.00045685,"MEAN_MOTION_DOT":1.85e-6,"MEAN_MOTION_DDOT":0},{"OBJECT_NAME":"ONEWEB-0232","OBJECT_ID":"2021-045Q","EPOCH":"2026-03-04T02:39:11.284128","MEAN_MOTION":13.15551582,"ECCENTRICITY":0.0001781,"INCLINATION":87.896,"RA_OF_ASC_NODE":280.1514,"ARG_OF_PERICENTER":85.8257,"MEAN_ANOMALY":274.3077,"EPHEMERIS_TYPE":0,"CLASSIFICATION_TYPE":"U","NORAD_CAT_ID":48781,"ELEMENT_SET_NO":999,"REV_AT_EPOCH":23083,"BSTAR":-0.0016794,"MEAN_MOTION_DOT":-6.19e-6,"MEAN_MOTION_DDOT":0},{"OBJECT_NAME":"ONEWEB-0231","OBJECT_ID":"2021-045R","EPOCH":"2026-03-04T02:07:15.530016","MEAN_MOTION":13.15547912,"ECCENTRICITY":0.0001672,"INCLINATION":87.8945,"RA_OF_ASC_NODE":280.1832,"ARG_OF_PERICENTER":97.5679,"MEAN_ANOMALY":262.5642,"EPHEMERIS_TYPE":0,"CLASSIFICATION_TYPE":"U","NORAD_CAT_ID":48782,"ELEMENT_SET_NO":999,"REV_AT_EPOCH":23052,"BSTAR":-0.00017892,"MEAN_MOTION_DOT":-5.5e-7,"MEAN_MOTION_DDOT":0},{"OBJECT_NAME":"ONEWEB-0234","OBJECT_ID":"2021-045S","EPOCH":"2026-03-04T03:01:49.237248","MEAN_MOTION":13.15549693,"ECCENTRICITY":0.0002329,"INCLINATION":87.8945,"RA_OF_ASC_NODE":280.1544,"ARG_OF_PERICENTER":77.0843,"MEAN_ANOMALY":283.0547,"EPHEMERIS_TYPE":0,"CLASSIFICATION_TYPE":"U","NORAD_CAT_ID":48783,"ELEMENT_SET_NO":999,"REV_AT_EPOCH":23066,"BSTAR":0.00046923,"MEAN_MOTION_DOT":1.89e-6,"MEAN_MOTION_DDOT":0},{"OBJECT_NAME":"ONEWEB-0238","OBJECT_ID":"2021-045T","EPOCH":"2026-03-04T03:02:13.202880","MEAN_MOTION":13.15547201,"ECCENTRICITY":0.0001924,"INCLINATION":87.8946,"RA_OF_ASC_NODE":280.1475,"ARG_OF_PERICENTER":81.1857,"MEAN_ANOMALY":278.9491,"EPHEMERIS_TYPE":0,"CLASSIFICATION_TYPE":"U","NORAD_CAT_ID":48784,"ELEMENT_SET_NO":999,"REV_AT_EPOCH":23056,"BSTAR":0.00065105,"MEAN_MOTION_DOT":2.58e-6,"MEAN_MOTION_DDOT":0},{"OBJECT_NAME":"ONEWEB-0240","OBJECT_ID":"2021-045U","EPOCH":"2026-03-04T03:32:50.134272","MEAN_MOTION":13.1554816,"ECCENTRICITY":0.0001812,"INCLINATION":87.8955,"RA_OF_ASC_NODE":280.1443,"ARG_OF_PERICENTER":95.1747,"MEAN_ANOMALY":264.959,"EPHEMERIS_TYPE":0,"CLASSIFICATION_TYPE":"U","NORAD_CAT_ID":48785,"ELEMENT_SET_NO":999,"REV_AT_EPOCH":23059,"BSTAR":0.0001674,"MEAN_MOTION_DOT":7.6e-7,"MEAN_MOTION_DDOT":0},{"OBJECT_NAME":"ONEWEB-0246","OBJECT_ID":"2021-045V","EPOCH":"2026-03-04T03:24:50.137344","MEAN_MOTION":13.15547331,"ECCENTRICITY":0.000146,"INCLINATION":87.8956,"RA_OF_ASC_NODE":280.1553,"ARG_OF_PERICENTER":90.8905,"MEAN_ANOMALY":269.2393,"EPHEMERIS_TYPE":0,"CLASSIFICATION_TYPE":"U","NORAD_CAT_ID":48786,"ELEMENT_SET_NO":999,"REV_AT_EPOCH":23046,"BSTAR":0.00020713,"MEAN_MOTION_DOT":9.1e-7,"MEAN_MOTION_DDOT":0},{"OBJECT_NAME":"ONEWEB-0210","OBJECT_ID":"2021-045W","EPOCH":"2026-03-04T02:48:19.569024","MEAN_MOTION":13.15547245,"ECCENTRICITY":0.0001208,"INCLINATION":87.8952,"RA_OF_ASC_NODE":280.157,"ARG_OF_PERICENTER":125.6238,"MEAN_ANOMALY":234.5005,"EPHEMERIS_TYPE":0,"CLASSIFICATION_TYPE":"U","NORAD_CAT_ID":48787,"ELEMENT_SET_NO":999,"REV_AT_EPOCH":23050,"BSTAR":0.00039071,"MEAN_MOTION_DOT":1.6e-6,"MEAN_MOTION_DDOT":0},{"OBJECT_NAME":"ONEWEB-0214","OBJECT_ID":"2021-045X","EPOCH":"2026-03-04T03:00:53.116992","MEAN_MOTION":13.15547919,"ECCENTRICITY":0.0001206,"INCLINATION":87.8956,"RA_OF_ASC_NODE":280.151,"ARG_OF_PERICENTER":99.2905,"MEAN_ANOMALY":260.8362,"EPHEMERIS_TYPE":0,"CLASSIFICATION_TYPE":"U","NORAD_CAT_ID":48788,"ELEMENT_SET_NO":999,"REV_AT_EPOCH":23047,"BSTAR":0.00050288,"MEAN_MOTION_DOT":2.02e-6,"MEAN_MOTION_DDOT":0},{"OBJECT_NAME":"ONEWEB-0221","OBJECT_ID":"2021-045Y","EPOCH":"2026-03-04T03:11:08.729088","MEAN_MOTION":13.15547508,"ECCENTRICITY":0.0001642,"INCLINATION":87.8953,"RA_OF_ASC_NODE":280.1598,"ARG_OF_PERICENTER":95.8098,"MEAN_ANOMALY":264.322,"EPHEMERIS_TYPE":0,"CLASSIFICATION_TYPE":"U","NORAD_CAT_ID":48789,"ELEMENT_SET_NO":999,"REV_AT_EPOCH":23056,"BSTAR":0.00047515,"MEAN_MOTION_DOT":1.92e-6,"MEAN_MOTION_DDOT":0},{"OBJECT_NAME":"ONEWEB-0213","OBJECT_ID":"2021-045Z","EPOCH":"2026-03-04T02:55:10.522848","MEAN_MOTION":13.15548248,"ECCENTRICITY":0.0001521,"INCLINATION":87.8955,"RA_OF_ASC_NODE":280.1659,"ARG_OF_PERICENTER":100.1606,"MEAN_ANOMALY":259.9695,"EPHEMERIS_TYPE":0,"CLASSIFICATION_TYPE":"U","NORAD_CAT_ID":48790,"ELEMENT_SET_NO":999,"REV_AT_EPOCH":23062,"BSTAR":0.00050115,"MEAN_MOTION_DOT":2.01e-6,"MEAN_MOTION_DDOT":0}]
