ONEWEB-0243             
1 48774U 21045H   26063.10581456  .00000056  00000+0  11540-3 0  9993
2 48774  87.8944 280.2038 0001257 107.4392 252.6876 13.15550254230547
ONEWEB-0222             
1 48775U 21045J   26063.08917381 -.00000110  00000+0 -32688-3 0  9990
2 48775  87.8954 280.1668 0001676  95.6432 264.4890 13.15548028230582
ONEWEB-0244             
1 48776U 21045K   26063.11530923  .00000138  00000+0  33327-3 0  9997
2 48776  87.8954 280.1516 0001535  95.1042 265.0263 13.15547488231155
ONEWEB-0247             
1 48777U 21045L   26063.03608931  .00000165  00000+0  40370-3 0  9990
2 48777  87.8945 280.2125 0001538 121.3687 238.7594 13.15547596230583
ONEWEB-0245             
1 48778U 21045M   26063.10738518  .00000109  00000+0  25622-3 0  9995
2 48778  87.8953 280.1678 0001777  91.1074 269.0260 13.15547643230562
ONEWEB-0229             
1 48779U 21045N   26063.10263196  .00000044  00000+0  83895-4 0  9996
2 48779  87.8951 280.1673 0001474  91.8188 268.3111 13.15547296230597
ONEWEB-0228             
1 48780U 21045P   26063.13604816  .00000185  00000+0  45685-3 0  9999
2 48780  87.8952 280.1478 0001555  92.1134 268.0174 13.15547583230515
ONEWEB-0232             
1 48781U 21045Q   26063.11054727 -.00000619  00000+0 -16794-2 0  9990
2 48781  87.8960 280.1514 0001781  85.8257 274.3077 13.15551582230833
ONEWEB-0231             
1 48782U 21045R   26063.08837419 -.00000055  00000+0 -17892-3 0  9999
2 48782  87.8945 280.1832 0001672  97.5679 262.5642 13.15547912230522
ONEWEB-0234             
1 48783U 21045S   26063.12626432  .00000189  00000+0  46923-3 0  9999
2 48783  87.8945 280.1544 0002329  77.0843 283.0547 13.15549693230664
ONEWEB-0238             
1 48784U 21045T   26063.12654170  .00000258  00000+0  65105-3 0  9990
2 48784  87.8946 280.1475 0001924  81.1857 278.9491 13.15547201230563
ONEWEB-0240             
1 48785U 21045U   26063.14780248  .00000076  00000+0  16740-3 0  9998
2 48785  87.8955 280.1443 0001812  95.1747 264.9590 13.15548160230591
ONEWEB-0246             
1 48786U 21045V   26063.14224696  .00000091  00000+0  20713-3 0  9991
2 48786  87.8956 280.1553 0001460  90.8905 269.2393 13.15547331230466
ONEWEB-0210             
1 48787U 21045W   26063.11689316  .00000160  00000+0  39071-3 0  9997
2 48787  87.8952 280.1570 0001208 125.6238 234.5005 13.15547245230502
ONEWEB-0214             
1 48788U 21045X   26063.12561478  .00000202  00000+0  50288-3 0  9997
2 48788  87.8956 280.1510 0001206  99.2905 260.8362 13.15547919230478
ONEWEB-0221             
1 48789U 21045Y   26063.13273992  .00000192  00000+0  47515-3 0  9997
2 48789  87.8953 280.1598 0001642  95.8098 264.3220 13.15547508230567
ONEWEB-0213             
1 48790U 21045Z   26063.12164957  .00000201  00000+0  50115-3 0  9999
2 48790  87.8955 280.1659 0001521 100.1606 259.9695 13.15548248230625
